{"type":"FeatureCollection","features":[{"type":"Feature","properties":{"name":"Spielgebiet","generatedBy":"scripts/build-area.mjs","generatedAt":"2026-09-04","stationCount":459,"paddingKm":2},"geometry":{"type":"Polygon","coordinates":[[[4.592155399804373,52.24424871568647],[5.107833986623949,52.06269244915663],[5.1131760002556526,52.061209177079526],[5.118891489274568,52.06041014335805],[5.124751264635235,52.06032738694062],[5.130520372292597,52.060964225972356],[5.135967480834848,52.06229512522778],[5.140874126400466,52.064266716451954],[5.145043450344705,52.0667999313998],[5.148308084015245,52.06979316342871],[5.3554664956702815,52.30690776916559],[5.35634511281762,52.30799343602128],[5.499687817786526,52.50029093627771],[5.501503430473537,52.503476508801725],[5.502310581334769,52.506812373944705],[5.502080678960793,52.51018131682349],[5.5008215687809034,52.51346493354601],[5.498577289991478,52.51654779318593],[5.4954265572714895,52.51932149886461],[5.4914800165335595,52.52168850461005],[5.4868763680606065,52.52356555282891],[5.067638930298077,52.66058501175296],[5.0631632846224255,52.661759508765044],[5.05843061846934,52.662473045098636],[5.053569057413071,52.66270630207052],[4.763940092899077,52.66175589382408],[4.758462375708013,52.66142116407721],[4.753181269104276,52.66047782766132],[4.729243594273405,52.65468561752093],[4.72362580375142,52.65288016002777],[4.718772176864952,52.65038947366541],[4.714905922551943,52.64732817587157],[4.676921757791651,52.609392101325604],[4.534105936281265,52.46614374928924],[4.5319248677934825,52.46346827045578],[4.530500932906437,52.460609734766635],[4.505155888800906,52.38857360272428],[4.50502700759647,52.38818592983737],[4.502222654875641,52.37924524897508],[4.5016972212828215,52.375854568593184],[4.50222819435909,52.372464211918484],[4.503796299763157,52.36919572844849],[4.579386500807785,52.25323322017551],[4.582497214931893,52.249672887962774],[4.586826250487823,52.246626927938316],[4.592155399804373,52.24424871568647]]]}}]}
